{
  "norad_id": 53424,
  "name": "STARLINK-4532",
  "history": [
    {
      "epoch": "2026-03-28T12:52:35.726304Z",
      "apogee_km": 540.8920145602951,
      "perigee_km": 538.5606946097996,
      "latitude_deg": -2.7540464831295837e-05,
      "longitude_deg": 10.40966135296452,
      "height_km": 540.5112960234247,
      "semi_major_axis_km": 6917.863354585047,
      "eccentricity": 0.0001685,
      "inclination_deg": 53.2189,
      "raan_deg": 29.5141,
      "arg_perigee_deg": 84.5611,
      "mean_anomaly_deg": 275.5573,
      "mean_motion_rev_day": 15.08845573
    },
    {
      "epoch": "2026-03-29T03:11:04.625088Z",
      "apogee_km": 541.1000244619427,
      "perigee_km": 538.4172645310082,
      "latitude_deg": -6.859367072595038e-06,
      "longitude_deg": 152.52925520903085,
      "height_km": 540.9469635308745,
      "semi_major_axis_km": 6917.895644496475,
      "eccentricity": 0.0001939,
      "inclination_deg": 53.2212,
      "raan_deg": 26.8417,
      "arg_perigee_deg": 102.6157,
      "mean_anomaly_deg": 257.5052,
      "mean_motion_rev_day": 15.08835009
    },
    {
      "epoch": "2026-03-30T04:37:14.671488Z",
      "apogee_km": 540.9767378553543,
      "perigee_km": 538.5181217290065,
      "latitude_deg": 4.0968225822964764e-05,
      "longitude_deg": 125.18350693534599,
      "height_km": 540.7125156523888,
      "semi_major_axis_km": 6917.88442979218,
      "eccentricity": 0.0001777,
      "inclination_deg": 53.2205,
      "raan_deg": 22.0824,
      "arg_perigee_deg": 93.2477,
      "mean_anomaly_deg": 266.8719,
      "mean_motion_rev_day": 15.08838678
    }
  ]
}